0 THEMIS E
1 30798U 07004E   13283.75730856 -.00000004  00000-0  00000+0 0  7954
2 30798 008.4746 034.1052 8194347 117.5605 343.8972 01.06490565974400
0 THEMIS E
1 30798U 07004E   13283.75730856 -.00000004  00000-0  00000+0 0  7965
2 30798 008.4746 034.1052 8194347 117.5605 343.8972 01.06490565974400
0 THEMIS E
1 30798U 07004E   13284.62279134 -.00000286  00000-0  00000+0 0  7927
2 30798 008.4871 033.9415 8189193 117.9539 315.3810 01.06472443 23913
0 THEMIS E
1 30798U 07004E   13289.00000000 -.00000229  00000-0  00000+0 0  7947
2 30798 008.4393 032.9940 8176968 119.5592 216.4099 01.07999786 23967
0 THEMIS E
1 30798U 07004E   13290.28704503 -.00000003  00000-0  00000+0 0  7971
2 30798 008.4392 033.1071 8368621 121.4257 344.2580 01.07289131974475
0 THEMIS E
1 30798U 07004E   13290.58296363 -.00000203  00000-0  00000+0 0  7954
2 30798 008.4560 033.1545 8177973 119.5076 112.2494 01.07998334 23972
0 THEMIS E
1 30798U 07004E   13294.92723111 -.00000261  00000-0  00000+0 0  7967
2 30798 008.4661 032.0440 8177174 121.1928 000.9853 01.07987328 24024
0 THEMIS E
1 30798U 07004E   13296.77831358 -.00000253  00000-0  00000+0 0  7977
2 30798 008.4682 031.7656 8177078 121.7321 000.5685 01.07986655 24041
